[{"OBJECT_NAME":"IXPE","OBJECT_ID":"2021-121A","EPOCH":"2026-03-10T00:00:02.999808","MEAN_MOTION":15.09223379,"ECCENTRICITY":0.00072712,"INCLINATION":0.2307,"RA_OF_ASC_NODE":347.0223,"ARG_OF_PERICENTER":20.3591,"MEAN_ANOMALY":57.9535,"EPHEMERIS_TYPE":0,"CLASSIFICATION_TYPE":"U","NORAD_CAT_ID":49954,"ELEMENT_SET_NO":999,"REV_AT_EPOCH":584,"BSTAR":0.0008624183,"MEAN_MOTION_DOT":0.00015078,"MEAN_MOTION_DDOT":0},{"OBJECT_NAME":"STARLINK-4150","OBJECT_ID":"2022-083C","EPOCH":"2026-03-09T14:36:08.275104","MEAN_MOTION":15.08830336,"ECCENTRICITY":0.0001347,"INCLINATION":53.2177,"RA_OF_ASC_NODE":174.4821,"ARG_OF_PERICENTER":106.7574,"MEAN_ANOMALY":253.3566,"EPHEMERIS_TYPE":0,"CLASSIFICATION_TYPE":"U","NORAD_CAT_ID":53134,"ELEMENT_SET_NO":999,"REV_AT_EPOCH":20120,"BSTAR":-8.7874e-5,"MEAN_MOTION_DOT":-1.686e-5,"MEAN_MOTION_DDOT":0}]
